[{"OBJECT_NAME":"STARLINK-6067","OBJECT_ID":"2023-078BB","EPOCH":"2026-03-09T23:48:08.788896","MEAN_MOTION":14.983264,"ECCENTRICITY":0.00026539,"INCLINATION":70.0005,"RA_OF_ASC_NODE":323.4976,"ARG_OF_PERICENTER":261.3525,"MEAN_ANOMALY":98.7334,"EPHEMERIS_TYPE":0,"CLASSIFICATION_TYPE":"U","NORAD_CAT_ID":56816,"ELEMENT_SET_NO":999,"REV_AT_EPOCH":15322,"BSTAR":9.7884525e-5,"MEAN_MOTION_DOT":1.075e-5,"MEAN_MOTION_DDOT":0},{"OBJECT_NAME":"FENGYUN 1C DEB","OBJECT_ID":"1999-025AXZ","EPOCH":"2026-03-08T14:14:59.144640","MEAN_MOTION":14.45531732,"ECCENTRICITY":0.02627631,"INCLINATION":98.3534,"RA_OF_ASC_NODE":127.2715,"ARG_OF_PERICENTER":27.4342,"MEAN_ANOMALY":334.0445,"EPHEMERIS_TYPE":0,"CLASSIFICATION_TYPE":"U","NORAD_CAT_ID":30887,"ELEMENT_SET_NO":999,"REV_AT_EPOCH":99368,"BSTAR":0.00075941367,"MEAN_MOTION_DOT":4.058e-5,"MEAN_MOTION_DDOT":0}]
